SatCatId,ObjectName,LaunchYear,OrbitalPeriod,LaunchMass,StatusCode,Inclination,Status,UcsData,OrbitClassEstimated,LaunchSiteCountry,Owner,UseType,Purpose,LaunchVehicleClass,TLE1,TLE2,MeanMotion,Eccentricity,OrbitClass
47854,YAOGAN-31 04A,2021,107.03,500.0,+,63.41,Active,1,LEO,PRC,China,Military,Earth Observation,Long March,1 47854U 21020A   25054.42534905  .00000020  00000+0  17609-3 0  9998,2 47854  63.4071  48.0300 0132499 358.6189   1.4453 13.45387699194167,13.45387699,0.0132499,LEO
47856,YAOGAN-31 04B,2021,107.03,500.0,+,63.41,Active,1,LEO,PRC,China,Military,Earth Observation,Long March,1 47856U 21020C   25054.42553298  .00000017  00000+0  17141-3 0  9993,2 47856  63.4066  48.8375 0132201 358.6889   1.3772 13.45390039194144,13.45390039,0.0132201,LEO
47857,YAOGAN-31 04C,2021,107.03,500.0,+,63.41,Active,1,LEO,PRC,China,Military,Earth Observation,Long March,1 47857U 21020D   25054.42556316  .00000021  00000+0  17852-3 0  9992,2 47857  63.4077  48.0844 0132367 358.6049   1.4590 13.45386016194151,13.45386016,0.0132367,LEO
47861,STARLINK-2280,2021,95.59,260.0,+,53.05,Active,1,LEO,USA,USA,Commercial,Communications,Falcon,1 47861U 21021B   25054.49550799  .00012647  00000+0  86562-3 0  9995,2 47861  53.0526 168.8866 0001217  73.8930 286.2193 15.06433981218623,15.06433981,0.0001217,LEO
47862,STARLINK-2291,2021,95.59,260.0,+,53.05,Active,1,LEO,USA,USA,Commercial,Communications,Falcon,1 47862U 21021C   25054.01128134  .00011328  00000+0  77790-3 0  9996,2 47862  53.0545 166.0621 0001283  94.9374 265.1762 15.06412855218628,15.06412855,0.0001283,LEO
47863,STARLINK-2293,2021,94.2,260.0,+,53.05,Active,1,LEO,USA,USA,Commercial,Communications,Falcon,1 47863U 21021D   25054.58335648  .00003188  00000+0  11642-3 0  9998,2 47863  53.0528 172.1207 0001372  64.4217  10.9775 15.31136168218588,15.31136168,0.0001372,LEO
47865,STARLINK-2310,2021,90.12,260.0,P,53.03,Active,1,LEO,USA,USA,Commercial,Communications,Falcon,1 47865U 21021F   25054.46568789  .00893877  39664-3  16211-2 0  9991,2 47865  53.0298 133.2812 0005556  28.2523 331.8807 16.00946742219126,16.00946742,0.0005556,LEO
47868,STARLINK-2323,2021,95.59,260.0,+,53.05,Active,1,LEO,USA,USA,Commercial,Communications,Falcon,1 47868U 21021J   25054.46557067  .00018820  00000+0  12780-2 0  9993,2 47868  53.0537 114.0211 0001336  94.4138 265.7004 15.06428211219400,15.06428211,0.0001336,LEO
47870,STARLINK-2326,2021,95.59,260.0,+,53.05,Active,1,LEO,USA,USA,Commercial,Communications,Falcon,1 47870U 21021L   25053.75648421  .00001655  00000+0  12996-3 0  9990,2 47870  53.0533 192.2064 0001206  95.1805 264.9321 15.06395762218617,15.06395762,0.0001206,LEO
47873,STARLINK-2329,2021,95.59,260.0,+,53.05,Active,1,LEO,USA,USA,Commercial,Communications,Falcon,1 47873U 21021P   25054.44622494  .00013186  00000+0  90217-3 0  9996,2 47873  53.0540 164.1086 0001413  79.3384 280.7764 15.06412709218692,15.06412709,0.0001413,LEO
47874,STARLINK-2330,2021,95.59,260.0,+,53.05,Active,1,LEO,USA,USA,Commercial,Communications,Falcon,1 47874U 21021Q   25054.45588962  .00018460  00000+0  12531-2 0  9991,2 47874  53.0539 119.0753 0001839  91.2589 268.8610 15.06455098219329,15.06455098,0.0001839,LEO
47877,STARLINK-2333,2021,89.69,260.0,P,53.04,Active,1,LEO,USA,USA,Commercial,Communications,Falcon,1 47877U 21021T   25054.25734277  .01860998  30464-2  16680-2 0  9995,2 47877  53.0417 138.6225 0005447 342.6875 117.8368 16.12837211219038,16.12837211,0.0005447,LEO
47878,STARLINK-2335,2021,89.3,260.0,P,53.05,Active,1,LEO,USA,USA,Commercial,Communications,Falcon,1 47878U 21021U   25054.10490882  .02669268  11871-4  12128-2 0  9995,2 47878  53.0401 136.0718 0007131 357.3478  69.4728 16.21250704219055,16.21250704,0.0007131,LEO
47879,STARLINK-2336,2021,95.59,260.0,+,53.05,Active,1,LEO,USA,USA,Commercial,Communications,Falcon,1 47879U 21021V   25053.78597903  .00000954  00000+0  82920-4 0  9996,2 47879  53.0587 192.0658 0001643  88.7613 271.3565 15.06392597218897,15.06392597,0.0001643,LEO
47882,STARLINK-2340,2021,94.33,260.0,P,53.05,Active,1,LEO,USA,USA,Commercial,Communications,Falcon,1 47882U 21021Y   25054.43316161  .00054221  00000+0  20278-2 0  9990,2 47882  53.0544 160.2791 0003483 227.0560 133.0146 15.26824312218753,15.26824312,0.0003483,LEO
47883,STARLINK-2342,2021,95.59,260.0,+,53.05,Active,1,LEO,USA,USA,Commercial,Communications,Falcon,1 47883U 21021Z   25054.06334536  .00006124  00000+0  42957-3 0  9994,2 47883  53.0524 180.8276 0001075 102.7450 257.3659 15.06408699218427,15.06408699,0.0001075,LEO
47884,STARLINK-2343,2021,95.59,260.0,+,53.05,Active,1,LEO,USA,USA,Commercial,Communications,Falcon,1 47884U 21021AA  25053.64820615  .00002724  00000+0  20168-3 0  9998,2 47884  53.0536 187.6908 0001062  95.5148 264.5962 15.06396347218767,15.06396347,0.0001062,LEO
47885,STARLINK-2344,2021,90.14,260.0,P,53.04,Active,1,LEO,USA,USA,Commercial,Communications,Falcon,1 47885U 21021AB  25054.47751892  .00863928  36549-3  16158-2 0  9996,2 47885  53.0434 150.3124 0005029   5.8303 354.2785 16.00413802218880,16.00413802,0.0005029,LEO
47887,STARLINK-2346,2021,95.59,260.0,+,53.06,Active,1,LEO,USA,USA,Commercial,Communications,Falcon,1 47887U 21021AD  25053.66665063  .00005610  00000+0  39525-3 0  9991,2 47887  53.0539 187.6077 0001384  74.6345 285.4797 15.06398698218774,15.06398698,0.0001384,LEO
47888,STARLINK-2348,2021,94.62,260.0,+,53.05,Active,1,LEO,USA,USA,Commercial,Communications,Falcon,1 47888U 21021AE  25054.06620092  .00002566  00000+0  12539-3 0  9993,2 47888  53.0554 174.8929 0001407  83.3063 276.8093 15.21929827218512,15.21929827,0.0001407,LEO
47892,STARLINK-2352,2021,90.73,260.0,P,53.04,Active,1,LEO,USA,USA,Commercial,Communications,Falcon,1 47892U 21021AJ  25053.91668981  .00492895  00000+0  16408-2 0  9996,2 47892  53.0441 103.7987 0010251  40.8361  44.1017 15.88440008219507,15.88440008,0.0010251,LEO
47894,STARLINK-2354,2021,95.59,260.0,+,53.05,Active,1,LEO,USA,USA,Commercial,Communications,Falcon,1 47894U 21021AL  25054.06195905  .00012570  00000+0  86080-3 0  9998,2 47894  53.0548 175.8340 0001726  74.3296 285.7883 15.06420279218507,15.06420279,0.0001726,LEO
47895,STARLINK-2355,2021,95.59,260.0,+,53.05,Active,1,LEO,USA,USA,Commercial,Communications,Falcon,1 47895U 21021AM  25054.47107965  .00002992  00000+0  21950-3 0  9995,2 47895  53.0549 173.9951 0000970  91.3163 268.7937 15.06423815218564,15.06423815,9.7e-05,LEO
47896,STARLINK-2356,2021,95.59,260.0,+,53.05,Active,1,LEO,USA,USA,Commercial,Communications,Falcon,1 47896U 21021AN  25053.66803110 -.00001082  00000+0 -53794-4 0  9994,2 47896  53.0548 192.5979 0001439  98.2763 261.8390 15.06386841218658,15.06386841,0.0001439,LEO
47898,STARLINK-2358,2021,95.59,260.0,+,53.05,Active,1,LEO,USA,USA,Commercial,Communications,Falcon,1 47898U 21021AQ  25054.46371530  .00019564  00000+0  13274-2 0  9990,2 47898  53.0545 174.0299 0001080  90.6496 269.4617 15.06435496218565,15.06435496,0.000108,LEO
47901,STARLINK-2361,2021,95.59,260.0,+,53.05,Active,1,LEO,USA,USA,Commercial,Communications,Falcon,1 47901U 21021AT  25054.44991183  .00024959  00000+0  16863-2 0  9996,2 47901  53.0532 164.1744 0001178  98.0379 262.0743 15.06449003218693,15.06449003,0.0001178,LEO
47903,STARLINK-2363,2021,95.59,260.0,+,53.05,Active,1,LEO,USA,USA,Commercial,Communications,Falcon,1 47903U 21021AV  25054.45632480  .00015911  00000+0  10835-2 0  9992,2 47903  53.0549 164.0525 0001401  84.4478 275.6671 15.06440342218706,15.06440342,0.0001401,LEO
47904,STARLINK-2364,2021,95.59,260.0,+,53.05,Active,1,LEO,USA,USA,Commercial,Communications,Falcon,1 47904U 21021AW  25054.45357886  .00017360  00000+0  11803-2 0  9993,2 47904  53.0554 164.0738 0001405  75.4799 284.6345 15.06437263218705,15.06437263,0.0001405,LEO
47907,STARLINK-2367,2021,95.59,260.0,+,53.05,Active,1,LEO,USA,USA,Commercial,Communications,Falcon,1 47907U 21021AZ  25053.66295530 -.00000677  00000+0 -26567-4 0  9995,2 47907  53.0523 187.6230 0000996  73.6138 286.4960 15.06386395218738,15.06386395,9.96e-05,LEO
47908,STARLINK-2368,2021,95.59,260.0,+,53.05,Active,1,LEO,USA,USA,Commercial,Communications,Falcon,1 47908U 21021BA  25054.06839632 -.00000211  00000+0  47093-5 0  9999,2 47908  53.0560 185.8050 0001343  95.0186 265.0956 15.06410338218360,15.06410338,0.0001343,LEO
47910,STARLINK-2370,2021,95.59,260.0,+,53.05,Active,1,LEO,USA,USA,Commercial,Communications,Falcon,1 47910U 21021BC  25054.46743913  .00017755  00000+0  12073-2 0  9999,2 47910  53.0557 174.1792 0001182  72.9343 287.1775 15.06417794218562,15.06417794,0.0001182,LEO
47911,STARLINK-2371,2021,95.59,260.0,+,53.05,Active,1,LEO,USA,USA,Commercial,Communications,Falcon,1 47911U 21021BD  25053.40634870  .00003089  00000+0  22617-3 0  9995,2 47911  53.0541 194.0178 0001275  75.0180 285.0950 15.06398959218508,15.06398959,0.0001275,LEO
47912,STARLINK-2372,2021,90.41,260.0,P,53.04,Active,1,LEO,USA,USA,Commercial,Communications,Falcon,1 47912U 21021BE  25054.50001157  .00671013  20008-3  16799-2 0  9999,2 47912  53.0419 133.2053 0007687  15.3370 334.2166 15.95124972219092,15.95124972,0.0007687,LEO
47916,STARLINK-2378,2021,95.59,260.0,+,53.05,Active,1,LEO,USA,USA,Commercial,Communications,Falcon,1 47916U 21021BJ  25054.44254111  .00009352  00000+0  64558-3 0  9990,2 47916  53.0550 164.1219 0001440  74.4145 285.7003 15.06418813218693,15.06418813,0.000144,LEO
47917,STARLINK-2397,2021,90.77,260.0,P,53.04,Active,1,LEO,USA,USA,Commercial,Communications,Falcon,1 47917U 21021BK  25054.58335648  .00441041  00000+0  15061-2 0  9990,2 47917  53.0372 137.9508 0004435  20.3808 325.7383 15.88098809219076,15.88098809,0.0004435,LEO
47919,STARLINK-2405,2021,95.59,260.0,+,53.05,Active,1,LEO,USA,USA,Commercial,Communications,Falcon,1 47919U 21021BM  25053.51183122  .00003139  00000+0  22957-3 0  9997,2 47919  53.0531 188.3020 0001234  77.3996 282.7131 15.06393578218734,15.06393578,0.0001234,LEO
